NORAD_CAT_ID,OBJECT_NAME,OBJECT_TYPE,EPOCH,MEAN_MOTION,ECCENTRICITY,INCLINATION,RA_OF_ASC_NODE,ARG_OF_PERICENTER,MEAN_ANOMALY,BSTAR,MEAN_MOTION_DOT,MEAN_MOTION_DDOT,TLE_LINE0,TLE_LINE1,TLE_LINE2,SEMIMAJOR_AXIS,PERIOD,APOGEE,PERIGEE,DECAYED
50819.0,STARLINK-3327,PAYLOAD,2023-12-14 21:21:36,15.08842818,0.0001573,53.2161,231.3885,84.8915,275.2257,4.6901e-05,4.59e-06,0.0,0 STARLINK-3327,1 50819U 22001S   23348.89000175  .00000459  00000-0  46901-4 0  9990,2 50819  53.2161 231.3885 0001573  84.8915 275.2257 15.08842818107254,6917.872,95.437,540.825,538.649,0.0
50819.0,STARLINK-3327,PAYLOAD,2023-12-14 22:56:59,15.08843263,0.0001575,53.2161,231.0923,84.3207,275.7965,5.0208e-05,5.11e-06,0.0,0 STARLINK-3327,1 50819U 22001S   23348.95624137  .00000511  00000-0  50208-4 0  9991,2 50819  53.2161 231.0923 0001575  84.3207 275.7965 15.08843263107262,6917.87,95.437,540.825,538.646,0.0
50819.0,STARLINK-3327,PAYLOAD,2023-12-15 19:37:00,15.08833096,0.000151,53.2168,227.2196,107.7778,252.3379,-1.0772e-05,-4.59e-06,0.0,0 STARLINK-3327,1 50819U 22001S   23349.81736988 -.00000459  00000-0 -10772-4 0  9990,2 50819  53.2168 227.2196 0001510 107.7778 252.3379 15.08833096108590,6917.901,95.438,540.811,538.722,0.0
50819.0,STARLINK-3327,PAYLOAD,2023-12-15 22:47:47,15.08832757,0.00015,53.2165,226.6255,108.5345,251.581,-9.618e-06,-4.41e-06,0.0,0 STARLINK-3327,1 50819U 22001S   23349.94985045 -.00000441  00000-0 -96180-5 0  9993,2 50819  53.2165 226.6255 0001500 108.5345 251.5810 15.08832757107418,6917.903,95.438,540.805,538.73,0.0
50819.0,STARLINK-3327,PAYLOAD,2023-12-16 22:38:33,15.08844407,0.0001307,53.2162,222.1659,104.2468,255.867,3.0976e-05,2.05e-06,0.0,0 STARLINK-3327,1 50819U 22001S   23350.94344515  .00000205  00000-0  30976-4 0  9992,2 50819  53.2162 222.1659 0001307 104.2468 255.8670 15.08844407107560,6917.867,95.437,540.636,538.828,0.0
50819.0,STARLINK-3327,PAYLOAD,2023-12-17 19:18:34,15.08836835,0.0001309,53.2165,218.3028,98.3671,261.747,0.00011586,1.556e-05,0.0,0 STARLINK-3327,1 50819U 22001S   23351.80457113  .00001556  00000-0  11586-3 0  9992,2 50819  53.2165 218.3028 0001309  98.3671 261.7470 15.08836835108898,6917.89,95.438,540.661,538.85,0.0
50819.0,STARLINK-3327,PAYLOAD,2023-12-17 20:53:57,15.08839844,0.0001313,53.2162,218.0048,95.9798,264.1344,0.00014663,2.046e-05,0.0,0 STARLINK-3327,1 50819U 22001S   23351.87080962  .00002046  00000-0  14663-3 0  9997,2 50819  53.2162 218.0048 0001313  95.9798 264.1344 15.08839844107701,6917.881,95.438,540.654,538.838,0.0
50819.0,STARLINK-3327,PAYLOAD,2023-12-18 22:20:08,15.08810485,0.0001713,53.2168,213.2441,72.8751,287.2429,0.00051261,7.873e-05,0.0,0 STARLINK-3327,1 50819U 22001S   23352.93065966  .00007873  00000-0  51261-3 0  9990,2 50819  53.2168 213.2441 0001713  72.8751 287.2429 15.08810485107865,6917.971,95.439,541.021,538.651,0.0
50819.0,STARLINK-3327,PAYLOAD,2023-12-19 19:00:09,15.08837237,0.0001821,53.2164,209.3834,64.3762,295.7418,6.3307e-05,7.19e-06,0.0,0 STARLINK-3327,1 50819U 22001S   23353.79177743  .00000719  00000-0  63307-4 0  9999,2 50819  53.2164 209.3834 0001821  64.3762 295.7418 15.08837237109195,6917.889,95.438,541.014,538.494,0.0
50819.0,STARLINK-3327,PAYLOAD,2023-12-19 22:10:55,15.08837854,0.0001766,53.2163,208.7903,64.7826,295.3349,6.2491e-05,7.07e-06,0.0,0 STARLINK-3327,1 50819U 22001S   23353.92425721  .00000707  00000-0  62491-4 0  9996,2 50819  53.2163 208.7903 0001766  64.7826 295.3349 15.08837854108011,6917.887,95.438,540.974,538.53,0.0
50819.0,STARLINK-3327,PAYLOAD,2023-12-20 20:26:19,15.08841063,0.0001662,53.2157,204.6285,69.5418,290.5752,7.3182e-05,8.77e-06,0.0,0 STARLINK-3327,1 50819U 22001S   23354.85161595  .00000877  00000-0  73182-4 0  9992,2 50819  53.2157 204.6285 0001662  69.5418 290.5752 15.08841063108154,6917.877,95.437,540.892,538.592,0.0
50819.0,STARLINK-3327,PAYLOAD,2023-12-21 20:17:06,15.08842327,0.00015,53.2154,200.1694,76.8051,283.3109,8.8683e-05,1.124e-05,0.0,0 STARLINK-3327,1 50819U 22001S   23355.84521440  .00001124  00000-0  88683-4 0  9999,2 50819  53.2154 200.1694 0001500  76.8051 283.3109 15.08842327108308,6917.873,95.437,540.776,538.701,0.0
50819.0,STARLINK-3327,PAYLOAD,2023-12-22 20:07:54,15.08835135,0.0001433,53.2161,195.6994,92.3574,267.7582,-1.3215e-05,-4.98e-06,0.0,0 STARLINK-3327,1 50819U 22001S   23356.83882168 -.00000498  00000-0 -13215-4 0  9990,2 50819  53.2161 195.6994 0001433  92.3574 267.7582 15.08835135109654,6917.895,95.438,540.752,538.769,0.0
50819.0,STARLINK-3327,PAYLOAD,2023-12-23 13:37:08,15.08820233,0.0001509,53.2158,192.4274,90.8287,269.2878,0.00026729,3.966e-05,0.0,0 STARLINK-3327,1 50819U 22001S   23357.56746116  .00003966  00000-0  26729-3 0  9997,2 50819  53.2158 192.4274 0001509  90.8287 269.2878 15.08820233108561,6917.941,95.439,540.85,538.762,0.0
50819.0,STARLINK-3327,PAYLOAD,2023-12-23 19:58:40,15.08840518,0.00014,53.2157,191.2386,97.7488,262.3663,0.00010897,1.447e-05,0.0,0 STARLINK-3327,1 50819U 22001S   23357.83241637  .00001447  00000-0  10897-3 0  9996,2 50819  53.2157 191.2386 0001400  97.7488 262.3663 15.08840518109802,6917.879,95.438,540.712,538.775,0.0
50819.0,STARLINK-3327,PAYLOAD,2023-12-24 13:27:54,15.08848659,0.0001309,53.2157,187.9692,89.3351,270.7791,0.00019519,2.821e-05,0.0,0 STARLINK-3327,1 50819U 22001S   23358.56104848  .00002821  00000-0  19519-3 0  9996,2 50819  53.2157 187.9692 0001309  89.3351 270.7791 15.08848659108716,6917.854,95.437,540.624,538.813,0.0
50819.0,STARLINK-3327,PAYLOAD,2023-12-24 19:49:26,15.08860292,0.0001406,53.2161,186.7795,76.7703,283.3446,0.00030128,4.513e-05,0.0,0 STARLINK-3327,1 50819U 22001S   23358.82599889  .00004513  00000-0  30128-3 0  9997,2 50819  53.2161 186.7795 0001406  76.7703 283.3446 15.08860292109952,6917.818,95.436,540.656,538.711,0.0
50819.0,STARLINK-3327,PAYLOAD,2023-12-24 23:00:12,15.08867497,0.0001423,53.215,186.1839,78.4293,281.6859,0.00043729,6.684e-05,0.0,0 STARLINK-3327,1 50819U 22001S   23358.95848010  .00006684  00000-0  43729-3 0  9996,2 50819  53.2150 186.1839 0001423  78.4293 281.6859 15.08867497108777,6917.796,95.436,540.646,538.677,0.0
50819.0,STARLINK-3327,PAYLOAD,2023-12-25 18:04:51,15.08839416,0.0001235,53.2148,182.6165,88.1879,271.9254,-7.8043e-05,-1.53e-05,0.0,0 STARLINK-3327,1 50819U 22001S   23359.75337133 -.00001530  00000-0 -78043-4 0  9999,2 50819  53.2148 182.6165 0001235  88.1879 271.9254 15.08839416110095,6917.882,95.438,540.602,538.893,0.0
50819.0,STARLINK-3327,PAYLOAD,2023-12-26 19:31:01,15.08839657,0.0001253,53.215,177.8581,91.0059,269.1076,-0.00015187,-2.704e-05,0.0,0 STARLINK-3327,1 50819U 22001S   23360.81321188 -.00002704  00000-0 -15187-3 0  9994,2 50819  53.2150 177.8581 0001253  91.0059 269.1076 15.08839657110255,6917.881,95.438,540.613,538.88,0.0
50819.0,STARLINK-3327,PAYLOAD,2023-12-26 21:06:24,15.088401,0.0001275,53.2151,177.5602,98.0659,262.0478,-0.00013875,-2.495e-05,0.0,0 STARLINK-3327,1 50819U 22001S   23360.87945140 -.00002495  00000-0 -13875-3 0  9999,2 50819  53.2151 177.5602 0001275  98.0659 262.0478 15.08840100109064,6917.88,95.438,540.627,538.863,0.0
50819.0,STARLINK-3327,PAYLOAD,2023-12-27 08:14:06,15.08835835,0.0001235,53.2154,175.4785,93.478,266.6354,0.0001859,2.672e-05,0.0,0 STARLINK-3327,1 50819U 22001S   23361.34313629  .00002672  00000-0  18590-3 0  9997,2 50819  53.2154 175.4785 0001235  93.4780 266.6354 15.08835835109136,6917.893,95.438,540.612,538.904,0.0
50819.0,STARLINK-3327,PAYLOAD,2023-12-27 20:57:12,15.08841418,0.0001239,53.2153,173.0998,93.0414,267.072,0.00026427,3.921e-05,0.0,0 STARLINK-3327,1 50819U 22001S   23361.87305599  .00003921  00000-0  26427-3 0  9998,2 50819  53.2153 173.0998 0001239  93.0414 267.0720 15.08841418109214,6917.876,95.437,540.598,538.884,0.0
50819.0,STARLINK-3327,PAYLOAD,2023-12-28 11:15:40,15.08837469,0.0001291,53.2148,170.4241,89.9678,270.1462,0.00013657,1.886e-05,0.0,0 STARLINK-3327,1 50819U 22001S   23362.46921960  .00001886  00000-0  13657-3 0  9999,2 50819  53.2148 170.4241 0001291  89.9678 270.1462 15.08837469110507,6917.888,95.438,540.646,538.86,0.0
50819.0,STARLINK-3327,PAYLOAD,2023-12-28 17:37:13,15.08839576,0.0001268,53.2154,169.235,91.4285,268.6852,0.00016183,2.289e-05,0.0,0 STARLINK-3327,1 50819U 22001S   23362.73417973  .00002289  00000-0  16183-3 0  9998,2 50819  53.2154 169.2350 0001268  91.4285 268.6852 15.08839576109343,6917.882,95.438,540.624,538.869,0.0
50819.0,STARLINK-3327,PAYLOAD,2023-12-29 14:17:13,15.08844231,0.0001322,53.2161,165.3701,91.5204,268.594,0.00014075,1.953e-05,0.0,0 STARLINK-3327,1 50819U 22001S   23363.59529771  .00001953  00000-0  14075-3 0  9998,2 50819  53.2161 165.3701 0001322  91.5204 268.5940 15.08844231109476,6917.867,95.437,540.647,538.818,0.0
50819.0,STARLINK-3327,PAYLOAD,2023-12-29 17:27:59,15.08844704,0.0001309,53.2165,164.7755,92.64,267.4742,0.00014144,1.964e-05,0.0,0 STARLINK-3327,1 50819U 22001S   23363.72777716  .00001964  00000-0  14144-3 0  9996,2 50819  53.2165 164.7755 0001309  92.6400 267.4742 15.08844704110696,6917.866,95.437,540.637,538.825,0.0
50819.0,STARLINK-3327,PAYLOAD,2023-12-30 14:08:00,15.0884385,0.0001254,53.216,160.9095,87.0531,273.0605,0.00012401,1.686e-05,0.0,0 STARLINK-3327,1 50819U 22001S   23364.58889663  .00001686  00000-0  12401-3 0  9991,2 50819  53.2160 160.9095 0001254  87.0531 273.0605 15.08843850109621,6917.869,95.437,540.601,538.866,0.0
50819.0,STARLINK-3327,PAYLOAD,2023-12-30 22:04:56,15.08849148,0.0001256,53.2162,159.423,87.0153,273.0983,0.0001931,2.787e-05,0.0,0 STARLINK-3327,1 50819U 22001S   23364.92009296  .00002787  00000-0  19310-3 0  9994,2 50819  53.2162 159.4230 0001256  87.0153 273.0983 15.08849148109679,6917.852,95.437,540.586,538.849,0.0
50819.0,STARLINK-3327,PAYLOAD,2023-12-30 23:40:20,15.08833505,0.0001566,53.2175,159.1285,63.1512,296.964,-4.3297e-05,-9.77e-06,0.0,0 STARLINK-3327,1 50819U 22001S   23364.98634275 -.00000977  00000-0 -43297-4 0  9994,2 50819  53.2175 159.1285 0001566  63.1512 296.9640 15.08833505110887,6917.9,95.438,540.849,538.682,0.0
